{"type": "FeatureCollection", "features": [ {"type": "Feature", "properties": {"norad_id": 39122, "name": "EUTELSAT 117 WEST A", "group": "eutelsat", "lat": -0.010636517862750489, "lon": -43.41309888925087, "alt_km": 35777.9081844836, "timestamp": "2025-12-23T22:42:32.650245+00:00", "meta": {"OBJECT_NAME": "EUTELSAT 117 WEST A", "OBJECT_ID": "2013-012A", "EPOCH": "2025-12-23T05:52:00.615648", "MEAN_MOTION": 1.00270836, "ECCENTRICITY": 0.00026538, "INCLINATION": 0.0238, "RA_OF_ASC_NODE": 311.3527, "ARG_OF_PERICENTER": 323.6864, "MEAN_ANOMALY": 148.2111, "EPHEMERIS_TYPE": 0, "CLASSIFICATION_TYPE": "U", "NORAD_CAT_ID": 39122, "ELEMENT_SET_NO": 999, "REV_AT_EPOCH": 4666, "BSTAR": 0, "MEAN_MOTION_DOT": 8e-08, "MEAN_MOTION_DDOT": 0}, "tle": {"line1": "1 39122U 13012A   25357.24445157  .00000008  00000+0  00000+0 0  9994", "line2": "2 39122   0.0238 311.3527 0002653 323.6864 148.2111  1.00270836 46669"}}, "geometry": {"type": "Point", "coordinates": [-43.41309888925087, -0.010636517862750489]}}, {"type": "Feature", "properties": {"norad_id": 39163, "name": "EUTELSAT 7B", "group": "eutelsat", "lat": 0.08564156745927717, "lon": 80.39568829220691, "alt_km": 35795.093002264504, "timestamp": "2025-12-23T22:42:32.650258+00:00", "meta": {"OBJECT_NAME": "EUTELSAT 7B", "OBJECT_ID": "2013-022A", "EPOCH": "2025-12-23T04:36:20.345760", "MEAN_MOTION": 1.0027134, "ECCENTRICITY": 0.0004487, "INCLINATION": 0.0655, "RA_OF_ASC_NODE": 5.1093, "ARG_OF_PERICENTER": 317.2592, "MEAN_ANOMALY": 205.6945, "EPHEMERIS_TYPE": 0, "CLASSIFICATION_TYPE": "U", "NORAD_CAT_ID": 39163, "ELEMENT_SET_NO": 999, "REV_AT_EPOCH": 4618, "BSTAR": 0, "MEAN_MOTION_DOT": 6.9e-07, "MEAN_MOTION_DDOT": 0}, "tle": {"line1": "1 39163U 13022A   25357.19190215  .00000069  00000+0  00000+0 0  9993", "line2": "2 39163   0.0655   5.1093 0004487 317.2592 205.6945  1.00271340 46188"}}, "geometry": {"type": "Point", "coordinates": [80.39568829220691, 0.08564156745927717]}}, {"type": "Feature", "properties": {"norad_id": 39612, "name": "EXPRESS-AT1", "group": "eutelsat", "lat": 0.009768348238703777, "lon": 129.3558775402503, "alt_km": 35782.89143181794, "timestamp": "2025-12-23T22:42:32.650288+00:00", "meta": {"OBJECT_NAME": "EXPRESS-AT1", "OBJECT_ID": "2014-010A", "EPOCH": "2025-12-23T13:23:52.325664", "MEAN_MOTION": 1.00270884, "ECCENTRICITY": 8.25e-05, "INCLINATION": 0.0133, "RA_OF_ASC_NODE": 300.272, "ARG_OF_PERICENTER": 176.8476, "MEAN_ANOMALY": 232.1915, "EPHEMERIS_TYPE": 0, "CLASSIFICATION_TYPE": "U", "NORAD_CAT_ID": 39612, "ELEMENT_SET_NO": 999, "REV_AT_EPOCH": 4305, "BSTAR": 0, "MEAN_MOTION_DOT": 1e-06, "MEAN_MOTION_DDOT": 0}, "tle": {"line1": "1 39612U 14010A   25357.55824451  .00000100  00000+0  00000+0 0  9992", "line2": "2 39612   0.0133 300.2720 0000825 176.8476 232.1915  1.00270884 43053"}}, "geometry": {"type": "Point", "coordinates": [129.3558775402503, 0.009768348238703777]}}, {"type": "Feature", "properties": {"norad_id": 39613, "name": "EXPRESS-AT2", "group": "eutelsat", "lat": -0.017182478590503522, "lon": -146.79600033400033, "alt_km": 35783.479981992845, "timestamp": "2025-12-23T22:42:32.650310+00:00", "meta": {"OBJECT_NAME": "EXPRESS-AT2", "OBJECT_ID": "2014-010B", "EPOCH": "2025-12-23T06:56:59.375904", "MEAN_MOTION": 1.00273479, "ECCENTRICITY": 0.00014714, "INCLINATION": 0.0146, "RA_OF_ASC_NODE": 298.7688, "ARG_OF_PERICENTER": 343.7959, "MEAN_ANOMALY": 53.622, "EPHEMERIS_TYPE": 0, "CLASSIFICATION_TYPE": "U", "NORAD_CAT_ID": 39613, "ELEMENT_SET_NO": 999, "REV_AT_EPOCH": 4273, "BSTAR": 0, "MEAN_MOTION_DOT": -2.6e-06, "MEAN_MOTION_DDOT": 0}, "tle": {"line1": "1 39613U 14010B   25357.28957611 -.00000260  00000+0  00000+0 0  9996", "line2": "2 39613   0.0146 298.7688 0001471 343.7959  53.6220  1.00273479 42733"}}, "geometry": {"type": "Point", "coordinates": [-146.79600033400033, -0.017182478590503522]}}, {"type": "Feature", "properties": {"norad_id": 39773, "name": "EUTELSAT 3B", "group": "eutelsat", "lat": 0.08250070812092274, "lon": 76.44626009432002, "alt_km": 35802.30835680462, "timestamp": "2025-12-23T22:42:32.650324+00:00", "meta": {"OBJECT_NAME": "EUTELSAT 3B", "OBJECT_ID": "2014-030A", "EPOCH": "2025-12-23T06:17:55.616928", "MEAN_MOTION": 1.00272485, "ECCENTRICITY": 0.00043061, "INCLINATION": 0.0619, "RA_OF_ASC_NODE": 345.4554, "ARG_OF_PERICENTER": 245.8049, "MEAN_ANOMALY": 318.3832, "EPHEMERIS_TYPE": 0, "CLASSIFICATION_TYPE": "U", "NORAD_CAT_ID": 39773, "ELEMENT_SET_NO": 999, "REV_AT_EPOCH": 4230, "BSTAR": 0, "MEAN_MOTION_DOT": 4.1e-07, "MEAN_MOTION_DDOT": 0}, "tle": {"line1": "1 39773U 14030A   25357.26244927  .00000041  00000+0  00000+0 0  9998", "line2": "2 39773   0.0619 345.4554 0004306 245.8049 318.3832  1.00272485 42308"}}, "geometry": {"type": "Point", "coordinates": [76.44626009432002, 0.08250070812092274]}}, {"type": "Feature", "properties": {"norad_id": 40425, "name": "EUTELSAT 115 WEST B", "group": "eutelsat", "lat": 0.005384030875556893, "lon": -41.56530567318462, "alt_km": 35785.53598366266, "timestamp": "2025-12-23T22:42:32.650337+00:00", "meta": {"OBJECT_NAME": "EUTELSAT 115 WEST B", "OBJECT_ID": "2015-010B", "EPOCH": "2025-12-22T10:47:31.232256", "MEAN_MOTION": 1.00269855, "ECCENTRICITY": 2.522e-05, "INCLINATION": 0.0093, "RA_OF_ASC_NODE": 153.5517, "ARG_OF_PERICENTER": 151.4988, "MEAN_ANOMALY": 193.1685, "EPHEMERIS_TYPE": 0, "CLASSIFICATION_TYPE": "U", "NORAD_CAT_ID": 40425, "ELEMENT_SET_NO": 999, "REV_AT_EPOCH": 3962, "BSTAR": 0, "MEAN_MOTION_DOT": -3e-08, "MEAN_MOTION_DDOT": 0}, "tle": {"line1": "1 40425U 15010B   25356.44966704 -.00000003  00000+0  00000+0 0  9995", "line2": "2 40425   0.0093 153.5517 0000252 151.4988 193.1685  1.00269855 39620"}}, "geometry": {"type": "Point", "coordinates": [-41.56530567318462, 0.005384030875556893]}}, {"type": "Feature", "properties": {"norad_id": 40875, "name": "EUTELSAT 8 WEST B", "group": "eutelsat", "lat": 0.07520053812003287, "lon": 65.37961188998734, "alt_km": 35802.16066762646, "timestamp": "2025-12-23T22:42:32.650349+00:00", "meta": {"OBJECT_NAME": "EUTELSAT 8 WEST B", "OBJECT_ID": "2015-039B", "EPOCH": "2025-12-23T06:14:48.414912", "MEAN_MOTION": 1.0027121, "ECCENTRICITY": 0.00042446, "INCLINATION": 0.0638, "RA_OF_ASC_NODE": 4.6888, "ARG_OF_PERICENTER": 268.249, "MEAN_ANOMALY": 264.8166, "EPHEMERIS_TYPE": 0, "CLASSIFICATION_TYPE": "U", "NORAD_CAT_ID": 40875, "ELEMENT_SET_NO": 999, "REV_AT_EPOCH": 3789, "BSTAR": 0, "MEAN_MOTION_DOT": -4.4e-07, "MEAN_MOTION_DDOT": 0}, "tle": {"line1": "1 40875U 15039B   25357.26028258 -.00000044  00000+0  00000+0 0  9994", "line2": "2 40875   0.0638   4.6888 0004244 268.2490 264.8166  1.00271210 37896"}}, "geometry": {"type": "Point", "coordinates": [65.37961188998734, 0.07520053812003287]}}, {"type": "Feature", "properties": {"norad_id": 41310, "name": "EUTELSAT 9B", "group": "eutelsat", "lat": 0.030841352480673708, "lon": 82.38316688335674, "alt_km": 35804.13227786861, "timestamp": "2025-12-23T22:42:32.650361+00:00", "meta": {"OBJECT_NAME": "EUTELSAT 9B", "OBJECT_ID": "2016-005A", "EPOCH": "2025-12-22T03:54:38.524896", "MEAN_MOTION": 1.00273048, "ECCENTRICITY": 0.0004511, "INCLINATION": 0.0657, "RA_OF_ASC_NODE": 72.7349, "ARG_OF_PERICENTER": 203.4472, "MEAN_ANOMALY": 242.4516, "EPHEMERIS_TYPE": 0, "CLASSIFICATION_TYPE": "U", "NORAD_CAT_ID": 41310, "ELEMENT_SET_NO": 999, "REV_AT_EPOCH": 3634, "BSTAR": 0, "MEAN_MOTION_DOT": 8.4e-07, "MEAN_MOTION_DDOT": 0}, "tle": {"line1": "1 41310U 16005A   25356.16294589  .00000084  00000+0  00000+0 0  9996", "line2": "2 41310   0.0657  72.7349 0004511 203.4472 242.4516  1.00273048 36349"}}, "geometry": {"type": "Point", "coordinates": [82.38316688335674, 0.030841352480673708]}}, {"type": "Feature", "properties": {"norad_id": 41382, "name": "EUTELSAT 65 WEST A", "group": "eutelsat", "lat": 0.025681247208823504, "lon": 8.200791064757553, "alt_km": 35786.38054884476, "timestamp": "2025-12-23T22:42:32.650373+00:00", "meta": {"OBJECT_NAME": "EUTELSAT 65 WEST A", "OBJECT_ID": "2016-014A", "EPOCH": "2025-12-23T04:15:44.817984", "MEAN_MOTION": 1.00272879, "ECCENTRICITY": 0.0002197, "INCLINATION": 0.0501, "RA_OF_ASC_NODE": 338.7634, "ARG_OF_PERICENTER": 296.1787, "MEAN_ANOMALY": 175.7805, "EPHEMERIS_TYPE": 0, "CLASSIFICATION_TYPE": "U", "NORAD_CAT_ID": 41382, "ELEMENT_SET_NO": 999, "REV_AT_EPOCH": 3577, "BSTAR": 0, "MEAN_MOTION_DOT": -2.55e-06, "MEAN_MOTION_DDOT": 0}, "tle": {"line1": "1 41382U 16014A   25357.17760206 -.00000255  00000+0  00000+0 0  9992", "line2": "2 41382   0.0501 338.7634 0002197 296.1787 175.7805  1.00272879 35770"}}, "geometry": {"type": "Point", "coordinates": [8.200791064757553, 0.025681247208823504]}}, {"type": "Feature", "properties": {"norad_id": 41589, "name": "EUTELSAT 117 WEST B", "group": "eutelsat", "lat": 0.005816952363157305, "lon": -43.65417061880322, "alt_km": 35785.83976510771, "timestamp": "2025-12-23T22:42:32.650385+00:00", "meta": {"OBJECT_NAME": "EUTELSAT 117 WEST B", "OBJECT_ID": "2016-038B", "EPOCH": "2025-12-23T06:49:57.184896", "MEAN_MOTION": 1.00269393, "ECCENTRICITY": 2.146e-05, "INCLINATION": 0.0095, "RA_OF_ASC_NODE": 152.625, "ARG_OF_PERICENTER": 152.4862, "MEAN_ANOMALY": 132.4463, "EPHEMERIS_TYPE": 0, "CLASSIFICATION_TYPE": "U", "NORAD_CAT_ID": 41589, "ELEMENT_SET_NO": 999, "REV_AT_EPOCH": 3489, "BSTAR": 0, "MEAN_MOTION_DOT": 1e-07, "MEAN_MOTION_DDOT": 0}, "tle": {"line1": "1 41589U 16038B   25357.28468964  .00000010  00000+0  00000+0 0  9993", "line2": "2 41589   0.0095 152.6250 0000214 152.4862 132.4463  1.00269393 34899"}}, "geometry": {"type": "Point", "coordinates": [-43.65417061880322, 0.005816952363157305]}}]}